$$SOE
2461288.500000000, A.D. 2026-Sep-05 00:00:00.0000, -8.095423236967292E+07, -5.009823220540342E+08, -2.770210844440366E+08,
2461295.500000000, A.D. 2026-Sep-12 00:00:00.0000, -7.380658595164056E+07, -5.018150163365335E+08, -2.775368416185079E+08,
2461302.500000000, A.D. 2026-Sep-19 00:00:00.0000, -6.664038129723263E+07, -5.025216950887116E+08, -2.779828850050039E+08,
2461309.500000000, A.D. 2026-Sep-26 00:00:00.0000, -5.945741615380033E+07, -5.031021548275611E+08, -2.783590871598577E+08,
2461316.500000000, A.D. 2026-Oct-03 00:00:00.0000, -5.225948854191560E+07, -5.035561878395597E+08, -2.786653181399752E+08,
2461323.500000000, A.D. 2026-Oct-10 00:00:00.0000, -4.504839786894155E+07, -5.038835819391662E+08, -2.789014454308664E+08,
2461330.500000000, A.D. 2026-Oct-17 00:00:00.0000, -3.782594608312143E+07, -5.040841203135547E+08, -2.790673338854094E+08,
2461337.500000000, A.D. 2026-Oct-24 00:00:00.0000, -3.059393884516748E+07, -5.041575814760461E+08, -2.791628456772029E+08,
2461344.500000000, A.D. 2026-Oct-31 00:00:00.0000, -2.335418661995475E+07, -5.041037393949735E+08, -2.791878402829399E+08,
2461351.500000000, A.D. 2026-Nov-07 00:00:00.0000, -1.610850535078419E+07, -5.039223637241235E+08, -2.791421745188648E+08,
2461358.500000000, A.D. 2026-Nov-14 00:00:00.0000, -8.858716517039580E+06, -5.036132192476524E+08, -2.790257025772173E+08,
2461365.500000000, A.D. 2026-Nov-21 00:00:00.0000, -1.606648388826824E+06, -5.031760638577919E+08, -2.788382758405448E+08,
2461372.500000000, A.D. 2026-Nov-28 00:00:00.0000, 5.645860521695578E+06, -5.026106480733331E+08, -2.785797426276492E+08,
2461379.500000000, A.D. 2026-Dec-05 00:00:00.0000, 1.289695943055267E+07, -5.019167167554322E+08, -2.782499482565607E+08,
2461386.500000000, A.D. 2026-Dec-12 00:00:00.0000, 2.014478483716862E+07, -5.010940099104819E+08, -2.778487351856776E+08,
2461393.500000000, A.D. 2026-Dec-19 00:00:00.0000, 2.738745977544158E+07, -5.001422625743533E+08, -2.773759430596749E+08,
2461400.500000000, A.D. 2026-Dec-26 00:00:00.0000, 3.462309261632034E+07, -4.990612046466985E+08, -2.768314087181484E+08,
2461407.500000000, A.D. 2027-Jan-02 00:00:00.0000, 4.184977569554265E+07, -4.978505608669677E+08, -2.762149662080079E+08,
2461414.500000000, A.D. 2027-Jan-09 00:00:00.0000, 4.906558388095474E+07, -4.965100509128270E+08, -2.755264468088603E+08,
2461421.500000000, A.D. 2027-Jan-16 00:00:00.0000, 5.626857311182918E+07, -4.950393896131166E+08, -2.747656790741776E+08,
2461428.500000000, A.D. 2027-Jan-23 00:00:00.0000, 6.345677895293803E+07, -4.934382873160894E+08, -2.739324888961797E+08,
2461435.500000000, A.D. 2027-Jan-30 00:00:00.0000, 7.062821534763646E+07, -4.917064504620318E+08, -2.730266996163094E+08,
2461442.500000000, A.D. 2027-Feb-06 00:00:00.0000, 7.778087399099277E+07, -4.898435820218024E+08, -2.720481321934843E+08,
2461449.500000000, A.D. 2027-Feb-13 00:00:00.0000, 8.491272385873543E+07, -4.878493805833203E+08, -2.709966052893258E+08,
2461456.500000000, A.D. 2027-Feb-20 00:00:00.0000, 9.202170852423501E+07, -4.857235388785107E+08, -2.698719351190594E+08,
2461463.500000000, A.D. 2027-Feb-27 00:00:00.0000, 9.910574265614034E+07, -4.834657449656014E+08, -2.686739354594578E+08,
2461470.500000000, A.D. 2027-Mar-06 00:00:00.0000, 1.061627107120835E+08, -4.810756841458905E+08, -2.674024179347604E+08,
2461477.500000000, A.D. 2027-Mar-13 00:00:00.0000, 1.131904662253989E+08, -4.785530395677719E+08, -2.660571922679424E+08,
2461484.500000000, A.D. 2027-Mar-20 00:00:00.0000, 1.201868305523651E+08, -4.758974923549546E+08, -2.646380664633975E+08,
2461491.500000000, A.D. 2027-Mar-27 00:00:00.0000, 1.271495912788237E+08, -4.731087218100383E+08, -2.631448469856248E+08,
2461498.500000000, A.D. 2027-Apr-03 00:00:00.0000, 1.340765004858927E+08, -4.701864057434130E+08, -2.615773389574562E+08,
2461505.500000000, A.D. 2027-Apr-10 00:00:00.0000, 1.409652729329158E+08, -4.671302209066479E+08, -2.599353463824792E+08,
2461512.500000000, A.D. 2027-Apr-17 00:00:00.0000, 1.478135841768630E+08, -4.639398435469963E+08, -2.582186723958885E+08,
2461519.500000000, A.D. 2027-Apr-24 00:00:00.0000, 1.546190687048148E+08, -4.606149501478219E+08, -2.564271195575868E+08,
2461526.500000000, A.D. 2027-May-01 00:00:00.0000, 1.613793183766197E+08, -4.571552183304256E+08, -2.545604902149101E+08,
2461533.500000000, A.D. 2027-May-08 00:00:00.0000, 1.680918814822049E+08, -4.535603271729763E+08, -2.526185869047564E+08,
2461540.500000000, A.D. 2027-May-15 00:00:00.0000, 1.747542609130276E+08, -4.498299559977530E+08, -2.506012125827568E+08,
2461547.500000000, A.D. 2027-May-22 00:00:00.0000, 1.813639098796336E+08, -4.459637842227635E+08, -2.485081707501993E+08,
2461554.500000000, A.D. 2027-May-29 00:00:00.0000, 1.879182285273263E+08, -4.419614937503209E+08, -2.463392659086755E+08,
2461561.500000000, A.D. 2027-Jun-05 00:00:00.0000, 1.944145623311241E+08, -4.378227707659301E+08, -2.440943041704704E+08,
2461568.500000000, A.D. 2027-Jun-12 00:00:00.0000, 2.008502002584935E+08, -4.335473065215132E+08, -2.417730938084337E+08,
2461575.500000000, A.D. 2027-Jun-19 00:00:00.0000, 2.072223723645664E+08, -4.291347980441248E+08, -2.393754457945437E+08,
2461582.500000000, A.D. 2027-Jun-26 00:00:00.0000, 2.135282470948788E+08, -4.245849490379964E+08, -2.369011743774502E+08,
2461589.500000000, A.D. 2027-Jul-03 00:00:00.0000, 2.197649284232451E+08, -4.198974709786712E+08, -2.343500977139615E+08,
2461596.500000000, A.D. 2027-Jul-10 00:00:00.0000, 2.259294528569407E+08, -4.150720843980787E+08, -2.317220385608659E+08,
2461603.500000000, A.D. 2027-Jul-17 00:00:00.0000, 2.320187863408252E+08, -4.101085204074680E+08, -2.290168250375370E+08,
2461610.500000000, A.D. 2027-Jul-24 00:00:00.0000, 2.380298212122910E+08, -4.050065225296487E+08, -2.262342914831691E+08,
2461617.500000000, A.D. 2027-Jul-31 00:00:00.0000, 2.439593736141576E+08, -3.997658486146344E+08, -2.233742794322600E+08,
2461624.500000000, A.D. 2027-Aug-07 00:00:00.0000, 2.498041811604312E+08, -3.943862716979018E+08, -2.204366386017768E+08,
2461631.500000000, A.D. 2027-Aug-14 00:00:00.0000, 2.555608985489431E+08, -3.888675800665649E+08, -2.174212277060262E+08,
2461638.500000000, A.D. 2027-Aug-21 00:00:00.0000, 2.612260917339730E+08, -3.832095799097906E+08, -2.143279154372264E+08,
2461645.500000000, A.D. 2027-Aug-28 00:00:00.0000, 2.667962340855649E+08, -3.774120993631160E+08, -2.111565818353525E+08,
2461652.500000000, A.D. 2027-Sep-04 00:00:00.0000, 2.722677033505477E+08, -3.714749914591963E+08, -2.079071197431425E+08,
2461659.500000000, A.D. 2027-Sep-11 00:00:00.0000, 2.776367780159736E+08, -3.653981366628097E+08, -2.045794362819599E+08,
2461666.500000000, A.D. 2027-Sep-18 00:00:00.0000, 2.828996332041920E+08, -3.591814456580727E+08, -2.011734544241428E+08,
2461673.500000000, A.D. 2027-Sep-25 00:00:00.0000, 2.880523363247222E+08, -3.528248624846300E+08, -1.976891147002308E+08,
2461680.500000000, A.D. 2027-Oct-02 00:00:00.0000, 2.930908425546492E+08, -3.463283680159711E+08, -1.941263770576159E+08,
2461687.500000000, A.D. 2027-Oct-09 00:00:00.0000, 2.980109901671337E+08, -3.396919838067551E+08, -1.904852228857956E+08,
2461694.500000000, A.D. 2027-Oct-16 00:00:00.0000, 3.028084957690271E+08, -3.329157763880451E+08, -1.867656572321297E+08,
2461701.500000000, A.D. 2027-Oct-23 00:00:00.0000, 3.074789497065419E+08, -3.259998620420136E+08, -1.829677112472208E+08,
2461708.500000000, A.D. 2027-Oct-30 00:00:00.0000, 3.120178120144875E+08, -3.189444114743642E+08, -1.790914448610339E+08,
2461715.500000000, A.D. 2027-Nov-06 00:00:00.0000, 3.164204077477823E+08, -3.117496532885858E+08, -1.751369495093807E+08,
2461722.500000000, A.D. 2027-Nov-13 00:00:00.0000, 3.206819197123322E+08, -3.044158783735719E+08, -1.711043509178566E+08,
2461729.500000000, A.D. 2027-Nov-20 00:00:00.0000, 3.247973815007077E+08, -2.969434474275446E+08, -1.669938124081416E+08,
2461736.500000000, A.D. 2027-Nov-27 00:00:00.0000, 3.287616724565303E+08, -2.893327986937682E+08, -1.628055386547312E+08,
2461743.500000000, A.D. 2027-Dec-04 00:00:00.0000, 3.325695125529947E+08, -2.815844550381519E+08, -1.585397796558692E+08,
2461750.500000000, A.D. 2027-Dec-11 00:00:00.0000, 3.362154566463941E+08, -2.736990313799897E+08, -1.541968349725378E+08,
2461757.500000000, A.D. 2027-Dec-18 00:00:00.0000, 3.396938883947316E+08, -2.656772428651134E+08, -1.497770583158983E+08,
2461764.500000000, A.D. 2027-Dec-25 00:00:00.0000, 3.429990140135680E+08, -2.575199138374127E+08, -1.452808625275370E+08,
2461771.500000000, A.D. 2028-Jan-01 00:00:00.0000, 3.461248559365498E+08, -2.492279876528014E+08, -1.407087249887046E+08,
$$EOE